[Satellite]
VERSION=1.1
NAME=COSMOS 1833
NICKNAME=COSMOS 1833
TLE1=1 17589U 87027A   22342.30439561 -.00000088  00000+0 -21233-4 0  9990
TLE2=2 17589  70.9149 301.5883 0027527 189.9199 170.1382 14.12902607842580
STATUS=0
